{
  "norad_id": 62731,
  "name": "2025-013C",
  "history": [
    {
      "epoch": "2026-03-28T22:25:10.533216Z",
      "apogee_km": 542.9529134507984,
      "perigee_km": 525.1070806977514,
      "latitude_deg": 1.5967471796620748e-05,
      "longitude_deg": 94.40243357970684,
      "height_km": 534.1427516655434,
      "semi_major_axis_km": 6912.166997074274,
      "eccentricity": 0.0012909,
      "inclination_deg": 97.6446,
      "raan_deg": 257.0438,
      "arg_perigee_deg": 289.4092,
      "mean_anomaly_deg": 70.5742,
      "mean_motion_rev_day": 15.1071113
    },
    {
      "epoch": "2026-03-29T04:46:41.541024Z",
      "apogee_km": 542.9080678123464,
      "perigee_km": 525.1244798694088,
      "latitude_deg": -6.142612099503394e-05,
      "longitude_deg": -0.9731941822314318,
      "height_km": 534.2820504857877,
      "semi_major_axis_km": 6912.153273840878,
      "eccentricity": 0.0012864,
      "inclination_deg": 97.6446,
      "raan_deg": 257.3085,
      "arg_perigee_deg": 288.4375,
      "mean_anomaly_deg": 71.5455,
      "mean_motion_rev_day": 15.10715629
    },
    {
      "epoch": "2026-03-30T04:37:22.456128Z",
      "apogee_km": 542.8220242290126,
      "perigee_km": 525.1449672731778,
      "latitude_deg": 1.4645758454178919e-05,
      "longitude_deg": 1.3695497165747095,
      "height_km": 534.8175621467238,
      "semi_major_axis_km": 6912.1204957510945,
      "eccentricity": 0.0012787,
      "inclination_deg": 97.6445,
      "raan_deg": 258.301,
      "arg_perigee_deg": 284.7079,
      "mean_anomaly_deg": 75.2733,
      "mean_motion_rev_day": 15.10726375
    }
  ]
}